NORAD_CAT_ID,OBJECT_NAME,OBJECT_TYPE,EPOCH,MEAN_MOTION,ECCENTRICITY,INCLINATION,RA_OF_ASC_NODE,ARG_OF_PERICENTER,MEAN_ANOMALY,BSTAR,MEAN_MOTION_DOT,MEAN_MOTION_DDOT,TLE_LINE0,TLE_LINE1,TLE_LINE2,SEMIMAJOR_AXIS,PERIOD,APOGEE,PERIGEE,DECAYED
50848.0,STARLINK-3315,PAYLOAD,2023-01-11 19:34:13,15.08842387,0.000265,53.2157,314.5788,37.9872,322.1307,0.00011052,1.471e-05,0.0,0 STARLINK-3315,1 50848U 22001AX  23011.81543788  .00001471  00000-0  11052-3 0  9996,2 50848  53.2157 314.5788 0002650  37.9872 322.1307 15.08842387 57539,6917.873000000001,95.437,541.571,537.905,0.0
50848.0,STARLINK-3315,PAYLOAD,2023-01-12 19:25:01,15.0883897,0.0002536,53.2147,310.12,47.3645,312.7561,0.00033604,5.064e-05,0.0,0 STARLINK-3315,1 50848U 22001AX  23012.80904185  .00005064  00000-0  33604-3 0  9997,2 50848  53.2147 310.1200 0002536  47.3645 312.7561 15.08838970 57681,6917.884,95.438,541.503,537.994,0.0
50848.0,STARLINK-3315,PAYLOAD,2023-01-13 12:54:15,15.08845657,0.0001986,53.2143,306.8455,50.8415,309.2753,0.00090535,0.00014152,0.0,0 STARLINK-3315,1 50848U 22001AX  23013.53768369  .00014152  00000-0  90535-3 0  9994,2 50848  53.2143 306.8455 0001986  50.8415 309.2753 15.08845657 56484,6917.863,95.437,541.102,538.354,0.0
50848.0,STARLINK-3315,PAYLOAD,2023-01-14 04:48:06,15.08867256,0.0001962,53.214,303.87,58.519,301.5993,0.0011098,0.00017432,0.0,0 STARLINK-3315,1 50848U 22001AX  23014.20007727  .00017432  00000-0  11098-2 0  9993,2 50848  53.2140 303.8700 0001962  58.5190 301.5993 15.08867256 57896,6917.797,95.436,541.019,538.305,0.0
50848.0,STARLINK-3315,PAYLOAD,2023-01-14 12:45:02,15.08847897,0.0001621999999999,53.2146,302.3848,59.1035,301.0116,0.00019618,2.836e-05,0.0,0 STARLINK-3315,1 50848U 22001AX  23014.53127789  .00002836  00000-0  19618-3 0  9999,2 50848  53.2146 302.3848 0001622  59.1035 301.0116 15.08847897 57944,6917.856,95.437,540.8430000000001,538.599,0.0
50848.0,STARLINK-3315,PAYLOAD,2023-01-15 04:38:54,15.08838823,0.0002165999999999,53.2157,299.41,77.5223,282.6011,0.00019135,2.758e-05,0.0,0 STARLINK-3315,1 50848U 22001AX  23015.19368427  .00002758  00000-0  19135-3 0  9995,2 50848  53.2157 299.4100 0002166  77.5223 282.6011 15.08838823 58049,6917.884,95.438,541.247,538.251,0.0
50848.0,STARLINK-3315,PAYLOAD,2023-01-15 22:08:08,15.08873036,0.0001913,53.2139,296.1349,109.0644,251.0555,0.0013436,0.0002118,0.0,0 STARLINK-3315,1 50848U 22001AX  23015.92231608  .00021180  00000-0  13436-2 0  9993,2 50848  53.2139 296.1349 0001913 109.0644 251.0555 15.08873036 56849,6917.779,95.435,540.9680000000001,538.321,0.0
50848.0,STARLINK-3315,PAYLOAD,2023-01-15 23:43:31,15.08880202,0.0001764,53.2147,295.8392,97.9673,262.1519,0.0018507999999999,0.00029323,0.0,0 STARLINK-3315,1 50848U 22001AX  23015.98855460  .00029323  00000-0  18508-2 0  9999,2 50848  53.2147 295.8392 0001764  97.9673 262.1519 15.08880202 58166,6917.758000000001,95.435,540.8430000000001,538.4019999999999,0.0
50848.0,STARLINK-3315,PAYLOAD,2023-01-16 18:48:08,15.08855736,5.91e-05,53.2131,292.2729,27.3612,332.7411,0.00087716,0.00013706,0.0,0 STARLINK-3315,1 50848U 22001AX  23016.78343210  .00013706  00000-0  87716-3 0  9999,2 50848  53.2131 292.2729 0000591  27.3612 332.7411 15.08855736 58283,6917.831999999999,95.437,540.106,539.288,0.0
50848.0,STARLINK-3315,PAYLOAD,2023-01-17 02:45:04,15.08848397,0.0001482,53.2157,290.7865,98.4062,261.7098,0.0012167,0.00019133,0.0,0 STARLINK-3315,1 50848U 22001AX  23017.11463094  .00019133  00000-0  12167-2 0  9997,2 50848  53.2157 290.7865 0001482  98.4062 261.7098 15.08848397 58336,6917.855,95.437,540.745,538.694,0.0
50848.0,STARLINK-3315,PAYLOAD,2023-01-17 10:42:00,15.08837135,0.0001508,53.2156,289.2996,97.7646,262.3517,0.00060465,9.347e-05,0.0,0 STARLINK-3315,1 50848U 22001AX  23017.44583425  .00009347  00000-0  60465-3 0  9995,2 50848  53.2156 289.2996 0001508  97.7646 262.3517 15.08837135 58388,6917.889,95.438,540.797,538.711,0.0
50848.0,STARLINK-3315,PAYLOAD,2023-01-17 21:49:43,15.08808956,0.0001458,53.2156,287.2198,92.1623,267.9537,0.00012837,1.754e-05,0.0,0 STARLINK-3315,1 50848U 22001AX  23017.90952622  .00001754  00000-0  12837-3 0  9999,2 50848  53.2156 287.2198 0001458  92.1623 267.9537 15.08808956 57143,6917.975,95.44,540.849,538.832,0.0
50848.0,STARLINK-3315,PAYLOAD,2023-01-17 23:25:06,15.08810806,0.0001482,53.2152,286.9217,92.9939,267.1223,0.00025464,3.764e-05,0.0,0 STARLINK-3315,1 50848U 22001AX  23017.97576746  .00003764  00000-0  25464-3 0  9998,2 50848  53.2152 286.9217 0001482  92.9939 267.1223 15.08810806 58469,6917.97,95.439,540.86,538.809,0.0
50848.0,STARLINK-3315,PAYLOAD,2023-01-18 04:11:15,15.08832129,0.0001473,53.2162,286.0305,97.1107,263.0053,0.001082,0.0001696999999999,0.0,0 STARLINK-3315,1 50848U 22001AX  23018.17448777  .00016970  00000-0  10820-2 0  9995,2 50848  53.2162 286.0305 0001473  97.1107 263.0053 15.08832129 58494,6917.904,95.438,540.788,538.75,0.0
50848.0,STARLINK-3315,PAYLOAD,2023-01-18 10:32:48,15.08829072,0.0001408,53.2156,284.839,93.5969,266.5184,0.00071465,0.00011101,0.0,0 STARLINK-3315,1 50848U 22001AX  23018.43945147  .00011101  00000-0  71465-3 0  9991,2 50848  53.2156 284.8390 0001408  93.5969 266.5184 15.08829072 57227,6917.914000000001,95.438,540.753,538.805,0.0
50848.0,STARLINK-3315,PAYLOAD,2023-01-18 21:40:30,15.08851306,0.0001361999999999,53.2146,282.7559,94.5437,265.571,0.0010857,0.00017038,0.0,0 STARLINK-3315,1 50848U 22001AX  23018.90312863  .00017038  00000-0  10857-2 0  9998,2 50848  53.2146 282.7559 0001362  94.5437 265.5710 15.08851306 57296,6917.846,95.437,540.653,538.769,0.0
50848.0,STARLINK-3315,PAYLOAD,2023-01-19 02:26:39,15.08871187,0.0001419,53.2152,281.8663,95.5969,264.5185,0.0017680999999999,0.00027988,0.0,0 STARLINK-3315,1 50848U 22001AX  23019.10184505  .00027988  00000-0  17681-2 0  9998,2 50848  53.2152 281.8663 0001419  95.5969 264.5185 15.08871187 58636,6917.785,95.436,540.632,538.668,0.0
50848.0,STARLINK-3315,PAYLOAD,2023-01-19 10:23:35,15.08848516,0.0002959,53.2148,280.379,73.4982,286.6335,0.00088668,0.00013855,0.0,0 STARLINK-3315,1 50848U 22001AX  23019.43305351  .00013855  00000-0  88668-3 0  9990,2 50848  53.2148 280.3790 0002959  73.4982 286.6335 15.08848516 58683,6917.854,95.437,541.766,537.672,0.0
50848.0,STARLINK-3315,PAYLOAD,2023-01-20 02:17:27,15.08827375,0.0001720999999999,53.2145,277.4024,70.8923,289.2256,0.0014179,0.00022342,0.0,0 STARLINK-3315,1 50848U 22001AX  23020.09545710  .00022342  00000-0  14179-2 0  9995,2 50848  53.2145 277.4024 0001721  70.8923 289.2256 15.08827375 58781,6917.919,95.438,540.975,538.5930000000001,0.0
50848.0,STARLINK-3315,PAYLOAD,2023-01-20 10:14:23,15.0883611,0.0001307,53.214,275.9188,71.2064,288.907,0.0011543,0.00018128,0.0,0 STARLINK-3315,1 50848U 22001AX  23020.42665780  .00018128  00000-0  11543-2 0  9991,2 50848  53.2140 275.9188 0001307  71.2064 288.9070 15.08836110 57529,6917.892,95.438,540.661,538.8530000000001,0.0
50848.0,STARLINK-3315,PAYLOAD,2023-01-20 22:57:28,15.08849814,0.0001371,53.2134,273.5408,72.9479,287.1664,0.0010689,0.00016769,0.0,0 STARLINK-3315,1 50848U 22001AX  23020.95657832  .00016769  00000-0  10689-2 0  9997,2 50848  53.2134 273.5408 0001371  72.9479 287.1664 15.08849814 58919,6917.85,95.437,540.664,538.7669999999999,0.0
50848.0,STARLINK-3315,PAYLOAD,2023-01-21 21:12:51,15.08857301,0.0001433,53.213,269.3768,76.9506,283.1646,0.00052916,8.148e-05,0.0,0 STARLINK-3315,1 50848U 22001AX  23021.88393137  .00008148  00000-0  52916-3 0  9997,2 50848  53.2130 269.3768 0001433  76.9506 283.1646 15.08857301 59053,6917.828,95.436,540.684,538.701,0.0
50848.0,STARLINK-3315,PAYLOAD,2023-01-22 22:39:00,15.08863297,0.0001547,53.2135,264.6216,68.01100000000001,292.1046,0.00041086,6.261e-05,0.0,0 STARLINK-3315,1 50848U 22001AX  23022.94375967  .00006261  00000-0  41086-3 0  9996,2 50848  53.2135 264.6216 0001547  68.0110 292.1046 15.08863297 59216,6917.809,95.436,540.744,538.604,0.0
50848.0,STARLINK-3315,PAYLOAD,2023-01-23 19:19:02,15.08836679,0.0001220999999999,53.2141,260.7571,76.6196,283.4932,-0.00011053,-2.046e-05,0.0,0 STARLINK-3315,1 50848U 22001AX  23023.80488754 -.00002046  00000-0 -11053-3 0  9991,2 50848  53.2141 260.7571 0001221  76.6196 283.4932 15.08836679 59347,6917.891,95.438,540.6,538.911,0.0
50848.0,STARLINK-3315,PAYLOAD,2023-01-24 22:20:35,15.08842951,0.000124,53.2133,255.6962,83.6262,276.4871,0.00027016,4.015e-05,0.0,0 STARLINK-3315,1 50848U 22001AX  23024.93097068  .00004015  00000-0  27016-3 0  9992,2 50848  53.2133 255.6962 0001240  83.6262 276.4871 15.08842951 59511,6917.871,95.437,540.594,538.879,0.0
50848.0,STARLINK-3315,PAYLOAD,2023-01-25 11:03:41,15.08834662,0.0001301,53.2135,253.3185,88.8056,271.3085,0.00024382,3.594e-05,0.0,0 STARLINK-3315,1 50848U 22001AX  23025.46089713  .00003594  00000-0  24382-3 0  9993,2 50848  53.2135 253.3185 0001301  88.8056 271.3085 15.08834662 59590,6917.897,95.438,540.6619999999999,538.862,0.0
50848.0,STARLINK-3315,PAYLOAD,2023-01-26 14:05:14,15.08838601,0.0001353,53.2128,248.2614,92.7765,267.3382,0.0001092,1.4499999999999998e-05,0.0,0 STARLINK-3315,1 50848U 22001AX  23026.58697824  .00001450  00000-0  10920-3 0  9997,2 50848  53.2128 248.2614 0001353  92.7765 267.3382 15.08838601 58456,6917.885,95.438,540.686,538.814,0.0
50848.0,STARLINK-3315,PAYLOAD,2023-01-27 09:09:52,15.08838354,0.0001250999999999,53.2132,244.6929,97.1575,262.956,0.0001534,2.154e-05,0.0,0 STARLINK-3315,1 50848U 22001AX  23027.38185959  .00002154  00000-0  15340-3 0  9990,2 50848  53.2132 244.6929 0001251  97.1575 262.9560 15.08838354 58572,6917.885,95.438,540.616,538.885,0.0
50848.0,STARLINK-3315,PAYLOAD,2023-01-27 20:17:34,15.0883916,0.0001237,53.2131,242.611,92.2667,267.8467,0.00013491,1.86e-05,0.0,0 STARLINK-3315,1 50848U 22001AX  23027.84554041  .00001860  00000-0  13491-3 0  9991,2 50848  53.2131 242.6110 0001237  92.2667 267.8467 15.08839160 59952,6917.883000000001,95.438,540.604,538.8919999999999,0.0
